     2              NAVIGATION DATA                         RINEX VERSION / TYPE
CCRINEXN V1.6.0 UX  CDDIS               14-DEC-20 18:31     PGM / RUN BY / DATE 
IGS BROADCAST EPHEMERIS FILE                                COMMENT             
    0.9313D-08 -0.1490D-07 -0.5960D-07  0.1192D-06          ION ALPHA           
    0.9626D+05 -0.1475D+06 -0.1311D+06  0.9175D+06          ION BETA            
   -0.931322574615D-09 0.888178419700D-15   233472     2136 DELTA-UTC: A0,A1,T,W
    18                                                      LEAP SECONDS        
                                                            END OF HEADER       
22 20 12 13  2  0  0.0-0.716135371476D-03 0.591171556152D-11 0.000000000000D+00
    0.111000000000D+03 0.125312500000D+02 0.517807283038D-08 0.526155029886D+00
    0.549480319023D-06 0.677447917406D-02 0.973418354988D-05 0.515365693855D+04
    0.720000000000D+04-0.558793544769D-07 0.389934840934D+00-0.126659870148D-06
    0.933095444999D+00 0.181031250000D+03-0.106586018780D+01-0.838034907518D-08
    0.600739308918D-09 0.100000000000D+01 0.213600000000D+04 0.000000000000D+00
    0.200000000000D+01 0.000000000000D+00-0.181607902050D-07 0.111000000000D+03
    0.720000000000D+02 0.400000000000D+01 0.000000000000D+00 0.000000000000D+00
23 20 12 13  2  0  0.0 0.109552405775D-03 0.306954461848D-11 0.000000000000D+00
    0.214000000000D+03 0.101250000000D+02 0.443447042778D-08-0.760280762597D+00
    0.590458512306D-06 0.110227614641D-02 0.954233109951D-05 0.515362921524D+04
    0.720000000000D+04-0.502914190292D-07 0.457968367009D+00-0.745058059692D-08
    0.962595334359D+00 0.198093750000D+03 0.223005241265D+01-0.782318300983D-08
    0.705743682772D-09 0.100000000000D+01 0.213600000000D+04 0.000000000000D+00
    0.200000000000D+01 0.000000000000D+00-0.838190317154D-08 0.982000000000D+03
    0.180000000000D+02 0.400000000000D+01 0.000000000000D+00 0.000000000000D+00
25 20 12 13  2  0  0.0 0.388384796679D-04 0.704858393874D-11 0.000000000000D+00
    0.440000000000D+02 0.160218750000D+03 0.456269005435D-08-0.228827855494D+01
    0.815838575363D-05 0.946677674074D-02 0.523030757904D-05 0.515370029831D+04
    0.720000000000D+04 0.143423676491D-06-0.265897659074D+01-0.134110450745D-06
    0.963346648123D+00 0.280062500000D+03 0.927165762576D+00-0.815998275318D-08
    0.469662420468D-09 0.100000000000D+01 0.213600000000D+04 0.000000000000D+00
    0.200000000000D+01 0.000000000000D+00 0.558793544769D-08 0.440000000000D+02
    0.180000000000D+02 0.400000000000D+01 0.000000000000D+00 0.000000000000D+00
26 20 12 13  2  0  0.0 0.135214067996D-04 0.591171556152D-11 0.000000000000D+00
    0.186000000000D+03 0.154750000000D+03 0.492913388964D-08-0.285737825894D+01
    0.801309943199D-05 0.545290438458D-02 0.641308724880D-05 0.515372683525D+04
    0.720000000000D+04-0.141561031342D-06-0.269797219650D+01-0.614672899246D-07
    0.944358954535D+00 0.249437500000D+03 0.221843417766D+00-0.829820279631D-08
    0.335728270144D-09 0.100000000000D+01 0.213600000000D+04 0.000000000000D+00
    0.200000000000D+01 0.000000000000D+00 0.698491930962D-08 0.186000000000D+03
    0.180000000000D+02 0.400000000000D+01 0.000000000000D+00 0.000000000000D+00
27 20 12 13  2  0  0.0-0.336463563144D-04-0.807176547823D-11 0.000000000000D+00
    0.650000000000D+02-0.533750000000D+02 0.461804950315D-08 0.154324491850D+01
   -0.275298953056D-05 0.866176350974D-02 0.271946191788D-06 0.515367305565D+04
    0.720000000000D+04-0.689178705216D-07-0.161162129552D+01 0.154599547386D-06
    0.976821494387D+00 0.384593750000D+03 0.565952000230D+00-0.850571143988D-08
   -0.263582407837D-09 0.100000000000D+01 0.213600000000D+04 0.000000000000D+00
    0.200000000000D+01 0.000000000000D+00 0.186264514923D-08 0.650000000000D+02
    0.180000000000D+02 0.400000000000D+01 0.000000000000D+00 0.000000000000D+00
28 20 12 13  2  0  0.0 0.643866136670D-03-0.488853402203D-11 0.000000000000D+00
    0.113000000000D+03 0.145062500000D+03 0.421196115937D-08 0.227192382570D+01
    0.736676156521D-05 0.182770608226D-01 0.336393713951D-05 0.515367239380D+04
    0.720000000000D+04 0.277534127235D-06-0.256514368218D+01-0.111758708954D-07
    0.975164071109D+00 0.316937500000D+03-0.136520731720D+01-0.785282710177D-08
    0.211080220910D-09 0.100000000000D+01 0.213600000000D+04 0.000000000000D+00
    0.400000000000D+01 0.000000000000D+00-0.111758708954D-07 0.113000000000D+03
    0.556800000000D+04 0.400000000000D+01 0.000000000000D+00 0.000000000000D+00
29 20 12 13  2  0  0.0-0.254923477769D-03-0.750333128963D-11 0.000000000000D+00
    0.390000000000D+02-0.838125000000D+02 0.432839458072D-08 0.156245352589D+01
   -0.442378222942D-05 0.145737198182D-02 0.769272446632D-06 0.515371143532D+04
    0.720000000000D+04-0.931322574616D-08-0.153978479248D+01 0.000000000000D+00
    0.984646722191D+00 0.373812500000D+03 0.224667906910D+01-0.835927676886D-08
   -0.345014371233D-09 0.100000000000D+01 0.213600000000D+04 0.000000000000D+00
    0.200000000000D+01 0.000000000000D+00-0.102445483208D-07 0.390000000000D+02
    0.180000000000D+02 0.400000000000D+01 0.000000000000D+00 0.000000000000D+00
30 20 12 13  2  0  0.0-0.351376365870D-03-0.636646291241D-11 0.000000000000D+00
    0.520000000000D+02 0.587812500000D+02 0.476805575152D-08-0.130836876002D+01
    0.287406146526D-05 0.471795606427D-02 0.117998570204D-04 0.515377775001D+04
    0.720000000000D+04 0.819563865662D-07 0.260703969127D+01-0.633299350738D-07
    0.937748868913D+00 0.138093750000D+03-0.284075420502D+01-0.797426073140D-08
   -0.336799743347D-09 0.100000000000D+01 0.213600000000D+04 0.000000000000D+00
    0.200000000000D+01 0.000000000000D+00 0.372529029846D-08 0.520000000000D+02
    0.192600000000D+04 0.400000000000D+01 0.000000000000D+00 0.000000000000D+00
31 20 12 13  2  0  0.0-0.872430391610D-04-0.238742359215D-11 0.000000000000D+00
    0.410000000000D+02 0.421875000000D+02 0.433768068181D-08-0.171661753007D+01
    0.184774398804D-05 0.995072000660D-02 0.128801912069D-04 0.515371431160D+04
    0.720000000000D+04-0.204890966415D-07 0.260374450779D+01-0.139698386192D-06
    0.956864891138D+00 0.126906250000D+03 0.214849886686D+00-0.776603777236D-08
   -0.291440711104D-09 0.100000000000D+01 0.213600000000D+04 0.000000000000D+00
    0.200000000000D+01 0.000000000000D+00-0.130385160446D-07 0.410000000000D+02
    0.180000000000D+02 0.400000000000D+01 0.000000000000D+00 0.000000000000D+00
32 20 12 13  2  0  0.0 0.766338780522D-05 0.261479726760D-11 0.000000000000D+00
    0.103000000000D+03-0.178125000000D+02 0.504056710271D-08 0.228050878197D+01
   -0.838190317154D-06 0.430326187052D-02 0.529177486896D-05 0.515360118103D+04
    0.720000000000D+04-0.931322574615D-07 0.152334873085D+01-0.108033418655D-06
    0.956503253400D+00 0.273187500000D+03-0.246744791648D+01-0.823748598150D-08
   -0.198579700213D-09 0.100000000000D+01 0.213600000000D+04 0.000000000000D+00
    0.200000000000D+01 0.000000000000D+00 0.465661287308D-09 0.103000000000D+03
    0.180000000000D+02 0.400000000000D+01 0.000000000000D+00 0.000000000000D+00
 5 20 12 13  3 59 44.0-0.282190740108D-04-0.909494701773D-12 0.000000000000D+00
    0.690000000000D+02 0.236875000000D+02 0.471591072233D-08-0.303877725247D+01
    0.119581818581D-05 0.603017990943D-02 0.918470323086D-05 0.515377551460D+04
    0.143840000000D+05 0.298023223877D-07 0.448838520566D+00 0.000000000000D+00
    0.954679617758D+00 0.199812500000D+03 0.893818463035D+00-0.792925885689D-08
    0.672528013491D-09 0.100000000000D+01 0.213600000000D+04 0.000000000000D+00
    0.200000000000D+01 0.000000000000D+00-0.111758708954D-07 0.690000000000D+02
    0.723100000000D+04 0.400000000000D+01 0.000000000000D+00 0.000000000000D+00
 8 20 12 13  3 59 44.0-0.270456075668D-05-0.136424205266D-11 0.000000000000D+00
    0.690000000000D+02-0.486562500000D+02 0.478698511143D-08 0.267352539296D+01
   -0.247359275818D-05 0.588284234982D-02-0.152736902237D-06 0.515376089478D+04
    0.143840000000D+05-0.745058059692D-07-0.162758993874D+01 0.838190317154D-07
    0.968315205072D+00 0.387625000000D+03-0.603372676665D-01-0.846963850873D-08
   -0.145720355552D-09 0.100000000000D+01 0.213600000000D+04 0.000000000000D+00
    0.200000000000D+01 0.000000000000D+00 0.512227416039D-08 0.690000000000D+02
    0.721800000000D+04 0.400000000000D+01 0.000000000000D+00 0.000000000000D+00
17 20 12 13  3 59 44.0 0.366323161870D-03 0.500222085975D-11 0.000000000000D+00
    0.900000000000D+01-0.729062500000D+02 0.424517682865D-08 0.246525338429D+01
   -0.382214784622D-05 0.136311929673D-01 0.398606061935D-06 0.515351627731D+04
    0.143840000000D+05 0.121071934700D-06-0.155197932064D+01-0.180676579475D-06
    0.982876493300D+00 0.378781250000D+03-0.160310575618D+01-0.807855078978D-08
   -0.336085427878D-09 0.100000000000D+01 0.213600000000D+04 0.000000000000D+00
    0.200000000000D+01 0.000000000000D+00-0.111758708954D-07 0.900000000000D+01
    0.885600000000D+04 0.400000000000D+01 0.000000000000D+00 0.000000000000D+00
21 20 12 13  3 59 44.0 0.771041959524D-04 0.352429196937D-11 0.000000000000D+00
    0.490000000000D+02-0.155250000000D+03 0.432982321166D-08 0.285609766434D+01
   -0.777654349804D-05 0.240150212776D-01 0.927038490772D-05 0.515375459671D+04
    0.143840000000D+05 0.424683094025D-06-0.634212524377D+00 0.165775418282D-06
    0.955692093120D+00 0.191843750000D+03-0.123154772643D+01-0.761710299720D-08
   -0.208222959036D-09 0.100000000000D+01 0.213600000000D+04 0.000000000000D+00
    0.200000000000D+01 0.000000000000D+00-0.102445483208D-07 0.490000000000D+02
    0.750600000000D+04 0.400000000000D+01 0.000000000000D+00 0.000000000000D+00
